[{"OBJECT_NAME":"OBJECT J","OBJECT_ID":"2023-085J","EPOCH":"2026-03-09T22:47:59.920512","MEAN_MOTION":15.31507187,"ECCENTRICITY":0.00067028,"INCLINATION":97.4828,"RA_OF_ASC_NODE":180.1819,"ARG_OF_PERICENTER":41.7877,"MEAN_ANOMALY":318.3875,"EPHEMERIS_TYPE":0,"CLASSIFICATION_TYPE":"U","NORAD_CAT_ID":57012,"ELEMENT_SET_NO":999,"REV_AT_EPOCH":15156,"BSTAR":0.00064525349,"MEAN_MOTION_DOT":0.00019595,"MEAN_MOTION_DDOT":0},{"OBJECT_NAME":"STARLINK-33741","OBJECT_ID":"2025-063C","EPOCH":"2026-03-09T22:22:49.256256","MEAN_MOTION":15.30211764,"ECCENTRICITY":0.00015811,"INCLINATION":53.1612,"RA_OF_ASC_NODE":51.5514,"ARG_OF_PERICENTER":84.6229,"MEAN_ANOMALY":275.4952,"EPHEMERIS_TYPE":0,"CLASSIFICATION_TYPE":"U","NORAD_CAT_ID":63365,"ELEMENT_SET_NO":999,"REV_AT_EPOCH":5479,"BSTAR":0.00098247916,"MEAN_MOTION_DOT":0.00028863,"MEAN_MOTION_DDOT":0}]
